BEIDOU-2 G5 (C05)       
1 38091U 12008A   26115.86389263  .00000046  00000+0  00000+0 0  9990
2 38091   3.4454  69.9882 0012310 265.6353 247.9869  1.00272732 51849
BEIDOU-2 M3 (C11)       
1 38250U 12018A   26112.88205403 -.00000040  00000+0  00000+0 0  9995
2 38250  55.8057 306.7386 0019738 278.1864  81.5938  1.86229726 94917
BEIDOU-2 M4 (C12)       
1 38251U 12018B   26113.35122763 -.00000040  00000+0  00000+0 0  9996
2 38251  55.7057 305.9412 0011064 284.1649  75.7156  1.86229378 94910
SES-5 (EGNOS/PRN 136)   
1 38652U 12036A   26115.63936997  .00000020  00000+0  00000+0 0  9993
2 38652   0.0576 301.7705 0001980  87.1365  59.8945  1.00271793 43934
BEIDOU-2 M6 (C14)       
1 38775U 12050B   26115.20896256 -.00000027  00000+0  00000+0 0  9999
2 38775  56.5004  64.6451 0014490 348.5468  11.3943  1.86230847 92320
GSAT-10 (GAGAN/PRN 128) 
1 38779U 12051B   26115.79741902 -.00000178  00000+0  00000+0 0  9992
2 38779   0.0259 263.9020 0006881 177.5584 142.3912  1.00270064 49571
GPS BIIF-3  (PRN 24)    
1 38833U 12053A   26113.97246792  .00000040  00000+0  00000+0 0  9997
2 38833  53.5743 145.8203 0177937  65.1328 296.7656  2.00566553 98354
GSAT0103 (GALILEO-FM3)  
1 38857U 12055A   26115.09622635  .00000047  00000+0  00000+0 0  9991
2 38857  55.7743 103.0007 0005916 295.5097  64.4243  1.70473359 84108
BEIDOU-2 G6 (C02)       
1 38953U 12059A   26115.86891932 -.00000185  00000+0  00000+0 0  9999
2 38953   4.2912  74.0614 0010523 313.6829 222.8858  1.00274601 49383
LUCH 5B (SDCM/PRN 125)  
1 38977U 12061A   26115.63512328 -.00000146  00000+0  00000+0 0  9999
2 38977  10.3736  50.3947 0001856 213.6172 162.0087  1.00271530 49080
COSMOS 2485 (747)       
1 39155U 13019A   26113.00664174  .00000025  00000+0  00000+0 0  9993
2 39155  65.3905  75.4553 0024583 237.7272 122.0157  2.13103112101109
GPS BIIF-4  (PRN 27)    
1 39166U 13023A   26113.33948645 -.00000014  00000+0  00000+0 0  9993
2 39166  54.5486 271.2064 0141929  50.6414 310.5808  2.00563719 94783
IRNSS-1A                
1 39199U 13034A   26115.43536534  .00000075  00000+0  00000+0 0  9990
2 39199  35.6090  64.6236 0017045 187.4898 173.0272  1.00272082 46841
GPS BIIF-5  (PRN 30)    
1 39533U 14008A   26115.33446882  .00000045  00000+0  00000+0 0  9996
2 39533  53.6444 151.4757 0083773 230.1062 129.2170  2.00556368 88624
ASTRA 5B (EGNOS/PRN 123)
1 39617U 14011B   26115.78563229  .00000123  00000+0  00000+0 0  9994
2 39617   0.0696 306.3881 0002691  64.5101 149.2289  1.00269121 44143
COSMOS 2492 (754)       
1 39620U 14012A   26111.55782382 -.00000024  00000+0  00000+0 0  9994
2 39620  65.3303 315.8614 0011743 330.3825  29.5784  2.13103169 94037
IRNSS-1B                
1 39635U 14017A   26115.43527866  .00000077  00000+0  00000+0 0  9997
2 39635  29.0174 241.3086 0023383 182.1073   1.6497  1.00272464 44265
