[{"OBJECT_NAME":"BEIDOU-2 G5 (C05)","OBJECT_ID":"2012-008A","EPOCH":"2026-04-25T20:44:00.323232","MEAN_MOTION":1.00272732,"ECCENTRICITY":0.001231,"INCLINATION":3.4454,"RA_OF_ASC_NODE":69.9882,"ARG_OF_PERICENTER":265.6353,"MEAN_ANOMALY":247.9869,"EPHEMERIS_TYPE":0,"CLASSIFICATION_TYPE":"U","NORAD_CAT_ID":38091,"ELEMENT_SET_NO":999,"REV_AT_EPOCH":5184,"BSTAR":0,"MEAN_MOTION_DOT":4.6e-7,"MEAN_MOTION_DDOT":0},{"OBJECT_NAME":"BEIDOU-2 M3 (C11)","OBJECT_ID":"2012-018A","EPOCH":"2026-04-22T21:10:09.468192","MEAN_MOTION":1.86229726,"ECCENTRICITY":0.00197389,"INCLINATION":55.8057,"RA_OF_ASC_NODE":306.7386,"ARG_OF_PERICENTER":278.1864,"MEAN_ANOMALY":81.5938,"EPHEMERIS_TYPE":0,"CLASSIFICATION_TYPE":"U","NORAD_CAT_ID":38250,"ELEMENT_SET_NO":999,"REV_AT_EPOCH":9491,"BSTAR":0,"MEAN_MOTION_DOT":-4.0e-7,"MEAN_MOTION_DDOT":0},{"OBJECT_NAME":"BEIDOU-2 M4 (C12)","OBJECT_ID":"2012-018B","EPOCH":"2026-04-23T08:25:46.067232","MEAN_MOTION":1.86229378,"ECCENTRICITY":0.00110642,"INCLINATION":55.7057,"RA_OF_ASC_NODE":305.9412,"ARG_OF_PERICENTER":284.1649,"MEAN_ANOMALY":75.7156,"EPHEMERIS_TYPE":0,"CLASSIFICATION_TYPE":"U","NORAD_CAT_ID":38251,"ELEMENT_SET_NO":999,"REV_AT_EPOCH":9491,"BSTAR":0,"MEAN_MOTION_DOT":-4.0e-7,"MEAN_MOTION_DDOT":0},{"OBJECT_NAME":"SES-5 (EGNOS/PRN 136)","OBJECT_ID":"2012-036A","EPOCH":"2026-04-25T15:20:41.565408","MEAN_MOTION":1.00271793,"ECCENTRICITY":0.000198,"INCLINATION":0.0576,"RA_OF_ASC_NODE":301.7705,"ARG_OF_PERICENTER":87.1365,"MEAN_ANOMALY":59.8945,"EPHEMERIS_TYPE":0,"CLASSIFICATION_TYPE":"U","NORAD_CAT_ID":38652,"ELEMENT_SET_NO":999,"REV_AT_EPOCH":4393,"BSTAR":0,"MEAN_MOTION_DOT":2.0e-7,"MEAN_MOTION_DDOT":0},{"OBJECT_NAME":"BEIDOU-2 M6 (C14)","OBJECT_ID":"2012-050B","EPOCH":"2026-04-25T05:00:54.365184","MEAN_MOTION":1.86230847,"ECCENTRICITY":0.001449,"INCLINATION":56.5004,"RA_OF_ASC_NODE":64.6451,"ARG_OF_PERICENTER":348.5468,"MEAN_ANOMALY":11.3943,"EPHEMERIS_TYPE":0,"CLASSIFICATION_TYPE":"U","NORAD_CAT_ID":38775,"ELEMENT_SET_NO":999,"REV_AT_EPOCH":9232,"BSTAR":0,"MEAN_MOTION_DOT":-2.7e-7,"MEAN_MOTION_DDOT":0},{"OBJECT_NAME":"GSAT-10 (GAGAN/PRN 128)","OBJECT_ID":"2012-051B","EPOCH":"2026-04-25T19:08:17.003328","MEAN_MOTION":1.00270064,"ECCENTRICITY":0.0006881,"INCLINATION":0.0259,"RA_OF_ASC_NODE":263.902,"ARG_OF_PERICENTER":177.5584,"MEAN_ANOMALY":142.3912,"EPHEMERIS_TYPE":0,"CLASSIFICATION_TYPE":"U","NORAD_CAT_ID":38779,"ELEMENT_SET_NO":999,"REV_AT_EPOCH":4957,"BSTAR":0,"MEAN_MOTION_DOT":-1.78e-6,"MEAN_MOTION_DDOT":0},{"OBJECT_NAME":"GPS BIIF-3  (PRN 24)","OBJECT_ID":"2012-053A","EPOCH":"2026-04-23T23:20:21.228288","MEAN_MOTION":2.00566553,"ECCENTRICITY":0.0177937,"INCLINATION":53.5743,"RA_OF_ASC_NODE":145.8203,"ARG_OF_PERICENTER":65.1328,"MEAN_ANOMALY":296.7656,"EPHEMERIS_TYPE":0,"CLASSIFICATION_TYPE":"U","NORAD_CAT_ID":38833,"ELEMENT_SET_NO":999,"REV_AT_EPOCH":9835,"BSTAR":0,"MEAN_MOTION_DOT":4.0e-7,"MEAN_MOTION_DDOT":0},{"OBJECT_NAME":"GSAT0103 (GALILEO-FM3)","OBJECT_ID":"2012-055A","EPOCH":"2026-04-25T02:18:33.956640","MEAN_MOTION":1.70473359,"ECCENTRICITY":0.0005916,"INCLINATION":55.7743,"RA_OF_ASC_NODE":103.0007,"ARG_OF_PERICENTER":295.5097,"MEAN_ANOMALY":64.4243,"EPHEMERIS_TYPE":0,"CLASSIFICATION_TYPE":"U","NORAD_CAT_ID":38857,"ELEMENT_SET_NO":999,"REV_AT_EPOCH":8410,"BSTAR":0,"MEAN_MOTION_DOT":4.7e-7,"MEAN_MOTION_DDOT":0},{"OBJECT_NAME":"BEIDOU-2 G6 (C02)","OBJECT_ID":"2012-059A","EPOCH":"2026-04-25T20:51:14.629248","MEAN_MOTION":1.00274601,"ECCENTRICITY":0.0010523,"INCLINATION":4.2912,"RA_OF_ASC_NODE":74.0614,"ARG_OF_PERICENTER":313.6829,"MEAN_ANOMALY":222.8858,"EPHEMERIS_TYPE":0,"CLASSIFICATION_TYPE":"U","NORAD_CAT_ID":38953,"ELEMENT_SET_NO":999,"REV_AT_EPOCH":4938,"BSTAR":0,"MEAN_MOTION_DOT":-1.85e-6,"MEAN_MOTION_DDOT":0},{"OBJECT_NAME":"LUCH 5B (SDCM/PRN 125)","OBJECT_ID":"2012-061A","EPOCH":"2026-04-25T15:14:34.651392","MEAN_MOTION":1.0027153,"ECCENTRICITY":0.0001856,"INCLINATION":10.3736,"RA_OF_ASC_NODE":50.3947,"ARG_OF_PERICENTER":213.6172,"MEAN_ANOMALY":162.0087,"EPHEMERIS_TYPE":0,"CLASSIFICATION_TYPE":"U","NORAD_CAT_ID":38977,"ELEMENT_SET_NO":999,"REV_AT_EPOCH":4908,"BSTAR":0,"MEAN_MOTION_DOT":-1.46e-6,"MEAN_MOTION_DDOT":0},{"OBJECT_NAME":"COSMOS 2485 (747)","OBJECT_ID":"2013-019A","EPOCH":"2026-04-23T00:09:33.846336","MEAN_MOTION":2.13103112,"ECCENTRICITY":0.00245834,"INCLINATION":65.3905,"RA_OF_ASC_NODE":75.4553,"ARG_OF_PERICENTER":237.7272,"MEAN_ANOMALY":122.0157,"EPHEMERIS_TYPE":0,"CLASSIFICATION_TYPE":"U","NORAD_CAT_ID":39155,"ELEMENT_SET_NO":999,"REV_AT_EPOCH":10110,"BSTAR":0,"MEAN_MOTION_DOT":2.5e-7,"MEAN_MOTION_DDOT":0},{"OBJECT_NAME":"GPS BIIF-4  (PRN 27)","OBJECT_ID":"2013-023A","EPOCH":"2026-04-23T08:08:51.629280","MEAN_MOTION":2.00563719,"ECCENTRICITY":0.01419293,"INCLINATION":54.5486,"RA_OF_ASC_NODE":271.2064,"ARG_OF_PERICENTER":50.6414,"MEAN_ANOMALY":310.5808,"EPHEMERIS_TYPE":0,"CLASSIFICATION_TYPE":"U","NORAD_CAT_ID":39166,"ELEMENT_SET_NO":999,"REV_AT_EPOCH":9478,"BSTAR":0,"MEAN_MOTION_DOT":-1.4e-7,"MEAN_MOTION_DDOT":0},{"OBJECT_NAME":"IRNSS-1A","OBJECT_ID":"2013-034A","EPOCH":"2026-04-25T10:26:55.565376","MEAN_MOTION":1.00272082,"ECCENTRICITY":0.0017045,"INCLINATION":35.609,"RA_OF_ASC_NODE":64.6236,"ARG_OF_PERICENTER":187.4898,"MEAN_ANOMALY":173.0272,"EPHEMERIS_TYPE":0,"CLASSIFICATION_TYPE":"U","NORAD_CAT_ID":39199,"ELEMENT_SET_NO":999,"REV_AT_EPOCH":4684,"BSTAR":0,"MEAN_MOTION_DOT":7.5e-7,"MEAN_MOTION_DDOT":0},{"OBJECT_NAME":"GPS BIIF-5  (PRN 30)","OBJECT_ID":"2014-008A","EPOCH":"2026-04-25T08:01:38.106048","MEAN_MOTION":2.00556368,"ECCENTRICITY":0.0083773,"INCLINATION":53.6444,"RA_OF_ASC_NODE":151.4757,"ARG_OF_PERICENTER":230.1062,"MEAN_ANOMALY":129.217,"EPHEMERIS_TYPE":0,"CLASSIFICATION_TYPE":"U","NORAD_CAT_ID":39533,"ELEMENT_SET_NO":999,"REV_AT_EPOCH":8862,"BSTAR":0,"MEAN_MOTION_DOT":4.5e-7,"MEAN_MOTION_DDOT":0},{"OBJECT_NAME":"ASTRA 5B (EGNOS/PRN 123)","OBJECT_ID":"2014-011B","EPOCH":"2026-04-25T18:51:18.629856","MEAN_MOTION":1.00269121,"ECCENTRICITY":0.0002691,"INCLINATION":0.0696,"RA_OF_ASC_NODE":306.3881,"ARG_OF_PERICENTER":64.5101,"MEAN_ANOMALY":149.2289,"EPHEMERIS_TYPE":0,"CLASSIFICATION_TYPE":"U","NORAD_CAT_ID":39617,"ELEMENT_SET_NO":999,"REV_AT_EPOCH":4414,"BSTAR":0,"MEAN_MOTION_DOT":1.23e-6,"MEAN_MOTION_DDOT":0},{"OBJECT_NAME":"COSMOS 2492 (754)","OBJECT_ID":"2014-012A","EPOCH":"2026-04-21T13:23:15.978048","MEAN_MOTION":2.13103169,"ECCENTRICITY":0.00117433,"INCLINATION":65.3303,"RA_OF_ASC_NODE":315.8614,"ARG_OF_PERICENTER":330.3825,"MEAN_ANOMALY":29.5784,"EPHEMERIS_TYPE":0,"CLASSIFICATION_TYPE":"U","NORAD_CAT_ID":39620,"ELEMENT_SET_NO":999,"REV_AT_EPOCH":9403,"BSTAR":0,"MEAN_MOTION_DOT":-2.4e-7,"MEAN_MOTION_DDOT":0},{"OBJECT_NAME":"IRNSS-1B","OBJECT_ID":"2014-017A","EPOCH":"2026-04-25T10:26:48.076224","MEAN_MOTION":1.00272464,"ECCENTRICITY":0.0023383,"INCLINATION":29.0174,"RA_OF_ASC_NODE":241.3086,"ARG_OF_PERICENTER":182.1073,"MEAN_ANOMALY":1.6497,"EPHEMERIS_TYPE":0,"CLASSIFICATION_TYPE":"U","NORAD_CAT_ID":39635,"ELEMENT_SET_NO":999,"REV_AT_EPOCH":4426,"BSTAR":0,"MEAN_MOTION_DOT":7.7e-7,"MEAN_MOTION_DDOT":0}]
